
# Worst residual: 117.96 km
# MJD 59478.000000 (2021 Sep 21  0:00)
C5VRL32 = C5Y6DL2
1 89948U 00000ABZ 21264.49919926  .00000000  00000-0  00000-0 0 13661
2 89948 020.0596 337.7847 8451486 191.2220 149.3498 00.26283572    07

# Worst residual: 119.51 km
# MJD 59479.000000 (2021 Sep 22  0:00)
C5VRL32 = C5Y6DL2
1 89948U 00000ABZ 21265.49919926  .00000000  00000-0  00000-0 0 13741
2 89948 019.6073 337.4551 8416787 192.0804 240.5499 00.26264315    01

# Worst residual: 120.48 km
# MJD 59480.000000 (2021 Sep 23  0:00)
C5VRL32 = C5Y6DL2
1 89948U 00000ABZ 21266.49919926  .00000000  00000-0  00000-0 0 13742
2 89948 019.3368 337.0062 8415633 193.1208 333.8296 00.26798334    01

# Worst residual: 81.53 km
# MJD 59481.000000 (2021 Sep 24  0:00)
C5VRL32 = C5Y6DL2
1 89948U 00000ABZ 21267.49919926  .00000000  00000-0  00000-0 0 13743
2 89948 019.2259 336.9945 8390847 194.0652 069.6889 00.26596205    04

# Worst residual: 101.15 km
# MJD 59482.000000 (2021 Sep 25  0:00)
C5VRL32 = C5Y6DL2
1 89948U 00000ABZ 21268.49919926  .00000000  00000-0  00000-0 0 13744
2 89948 018.9614 336.9439 8363352 194.6316 162.7828 00.26284120    05

# Worst residual: 110.70 km
# MJD 59483.000000 (2021 Sep 26  0:00)
C5VRL32 = C5Y6DL2
1 89948U 00000ABZ 21269.49919926  .00000000  00000-0  00000-0 0 13745
2 89948 018.6803 336.6594 8349037 195.3023 254.9649 00.26352587    06

# Worst residual: 169.17 km
# MJD 59484.000000 (2021 Sep 27  0:00)
C5VRL32 = C5Y6DL2
1 89948U 00000ABZ 21270.49919926  .00000000  00000-0  00000-0 0 13747
2 89948 018.5132 336.2970 8344232 196.3634 348.9881 00.27080395    03

# Worst residual: 108.21 km
# MJD 59485.000000 (2021 Sep 28  0:00)
C5VRL32 = C5Y6DL2
1 89948U 00000ABZ 21271.49919926  .00000000  00000-0  00000-0 0 13748
2 89948 018.3902 336.3386 8323067 197.1818 084.6800 00.26552167    09

# Worst residual: 114.17 km
# MJD 59486.000000 (2021 Sep 29  0:00)
C5VRL32 = C5Y6DL2
1 89948U 00000ABZ 21272.49919926  .00000000  00000-0  00000-0 0 13749
2 89948 018.1317 336.2022 8293873 197.8718 177.1796 00.26256889    04

# Worst residual: 95.97 km
# MJD 59487.000000 (2021 Sep 30  0:00)
C5VRL32 = C5Y6DL2
1 89948U 00000ABZ 21273.49919926  .00000000  00000-0  00000-0 0 13740
2 89948 017.8930 335.8616 8274885 198.6029 269.3550 00.26371936    04

# Worst residual: 147.40 km
# MJD 59488.000000 (2021 Oct  1  0:00)
C5VRL32 = C5Y6DL2
1 89948U 00000ABZ 21274.49919926  .00000000  00000-0  00000-0 0 13741
2 89948 017.7816 335.5403 8271182 199.6938 004.0838 00.27194642    05

# Worst residual: 111.26 km
# MJD 59489.000000 (2021 Oct  2  0:00)
C5VRL32 = C5Y6DL2
1 89948U 00000ABZ 21275.49919926  .00000000  00000-0  00000-0 0 13742
2 89948 017.6421 335.5689 8247141 200.5862 099.1874 00.26486634    07

# Worst residual: 112.35 km
# MJD 59490.000000 (2021 Oct  3  0:00)
C5VRL32 = C5Y6DL2
1 89948U 00000ABZ 21276.49919926  .00000000  00000-0  00000-0 0 13743
2 89948 017.4421 335.3984 8209738 201.3101 191.4245 00.26235937    02

# Worst residual: 89.87 km
# MJD 59491.000000 (2021 Oct  4  0:00)
C5VRL32 = C5Y6DL2
1 89948U 00000ABZ 21277.49919926  .00000000  00000-0  00000-0 0 13744
2 89948 017.2747 335.0866 8188650 201.9997 283.7767 00.26399188    08

# Worst residual: 154.59 km
# MJD 59492.000000 (2021 Oct  5  0:00)
C5VRL32 = C5Y6DL2
1 89948U 00000ABZ 21278.49919926  .00000000  00000-0  00000-0 0 13745
2 89948 017.1996 334.8000 8190580 203.0845 019.0702 00.27082265    05

# Worst residual: 99.19 km
# MJD 59493.000000 (2021 Oct  6  0:00)
C5VRL32 = C5Y6DL2
1 89948U 00000ABZ 21279.49919926  .00000000  00000-0  00000-0 0 13746
2 89948 017.0517 334.8066 8148307 204.0974 113.5616 00.26402784    04

# Worst residual: 114.13 km
# MJD 59494.000000 (2021 Oct  7  0:00)
C5VRL32 = C5Y6DL2
1 89948U 00000ABZ 21280.49919926  .00000000  00000-0  00000-0 0 13748
2 89948 016.8813 334.5973 8115568 204.8099 205.6892 00.26231342    02

# Worst residual: 108.29 km
# MJD 59495.000000 (2021 Oct  8  0:00)
C5VRL32 = C5Y6DL2
1 89948U 00000ABZ 21281.49919926  .00000000  00000-0  00000-0 0 13749
2 89948 016.7337 334.2422 8099708 205.6406 298.0373 00.26511262    08

# Worst residual: 173.20 km
# MJD 59496.000000 (2021 Oct  9  0:00)
C5VRL32 = C5Y6DL2
1 89948U 00000ABZ 21282.49919926  .00000000  00000-0  00000-0 0 13740
2 89948 016.6791 334.0617 8094121 206.6228 033.9003 00.27048601    01

# Worst residual: 104.87 km
# MJD 59497.000000 (2021 Oct 10  0:00)
C5VRL32 = C5Y6DL2
1 89948U 00000ABZ 21283.49919926  .00000000  00000-0  00000-0 0 13741
2 89948 016.5459 334.0058 8044272 207.7254 127.8435 00.26373653    02

# Worst residual: 106.00 km
# MJD 59498.000000 (2021 Oct 11  0:00)
C5VRL32 = C5Y6DL2
1 89948U 00000ABZ 21284.49919926  .00000000  00000-0  00000-0 0 13742
2 89948 016.3868 333.7390 8005410 208.4985 219.8302 00.26241939    05

# Worst residual: 102.43 km
# MJD 59499.000000 (2021 Oct 12  0:00)
C5VRL32 = C5Y6DL2
1 89948U 00000ABZ 21285.49919926  .00000000  00000-0  00000-0 0 13743
2 89948 016.2959 333.4539 7984611 209.2855 312.4622 00.26600346    06

# Worst residual: 125.74 km
# MJD 59500.000000 (2021 Oct 13  0:00)
C5VRL32 = C5Y6DL2
1 89948U 00000ABZ 21286.49919926  .00000000  00000-0  00000-0 0 13744
2 89948 016.2264 333.3847 7973636 210.3488 048.5305 00.26878694    04

# Worst residual: 105.83 km
# MJD 59501.000000 (2021 Oct 14  0:00)
C5VRL32 = C5Y6DL2
1 89948U 00000ABZ 21287.49919926  .00000000  00000-0  00000-0 0 13745
2 89948 016.1049 333.2490 7930043 211.3559 141.9888 00.26343075    06

# Worst residual: 96.00 km
# MJD 59502.000000 (2021 Oct 15  0:00)
C5VRL32 = C5Y6DL2
1 89948U 00000ABZ 21288.49919926  .00000000  00000-0  00000-0 0 13746
2 89948 015.9870 332.9980 7892397 212.0769 234.1067 00.26272422    06

# Worst residual: 125.70 km
# MJD 59503.000000 (2021 Oct 16  0:00)
C5VRL32 = C5Y6DL2
1 89948U 00000ABZ 21289.49919926  .00000000  00000-0  00000-0 0 13747
2 89948 015.9234 332.7615 7890256 212.8940 327.5313 00.26664542    03

# Worst residual: 84.03 km
# MJD 59504.000000 (2021 Oct 17  0:00)
C5VRL32 = C5Y6DL2
1 89948U 00000ABZ 21290.49919926  .00000000  00000-0  00000-0 0 13749
2 89948 015.8683 332.6755 7858866 214.1684 063.4393 00.26687208    03
